ORBCOMM FM103           
1 40091U 14040F   24327.21517031  .00001914  00000+0  45429-3 0  9992
2 40091  47.0057 274.7815 0001794  35.0399 325.0604 14.57458129550964
ORBCOMM FM114           
1 41179U 15081A   24326.97017670  .00001672  00000+0  40132-3 0  9999
2 41179  47.0012 185.1205 0002057 134.7106 225.3947 14.57489230474286
ORBCOMM FM119           
1 41180U 15081B   24326.53584783  .00001688  00000+0  40515-3 0  9999
2 41180  47.0002  96.3962 0001844 215.8529 144.2232 14.57430201475420
ORBCOMM FM105           
1 41181U 15081C   24326.65903130  .00000862  00000+0  29055-3 0  9993
2 41181  47.0016  80.8302 0001132 136.8301 223.2668 14.44846512470734
ORBCOMM FM110           
1 41182U 15081D   24326.80928122  .00001551  00000+0  37481-3 0  9997
2 41182  47.0004 185.2602 0001841 256.8935 103.1745 14.57503606474080
ORBCOMM FM118           
1 41183U 15081E   24326.92505434  .00001520  00000+0  36847-3 0  9999
2 41183  47.0029 185.0750 0002340 257.9714 102.0909 14.57444720474285
ORBCOMM FM112           
1 41184U 15081F   24326.71870268  .00002001  00000+0  47298-3 0  9994
2 41184  46.9985  94.7212 0001831 195.9602 164.1226 14.57470678475390
ORBCOMM FM113           
1 41185U 15081G   24326.69624610  .00002464  00000+0  57399-3 0  9996
2 41185  46.9995  95.1287 0002000 215.5534 144.5218 14.57458775475376
