<?xml version="1.0" encoding="UTF-8"?>
<ndm xmlns:xsi="http://www.w3.org/2001/XMLSchema-instance" xsi:noNamespaceSchemaLocation="https://sanaregistry.org/r/ndmxml_unqualified/ndmxml-2.0.0-master-2.0.xsd">
<omm id="CCSDS_OMM_VERS" version="2.0">
<header><CREATION_DATE/><ORIGINATOR/></header><body><segment><metadata><OBJECT_NAME>ORBCOMM FM103</OBJECT_NAME><OBJECT_ID>2014-040F</OBJECT_ID><CENTER_NAME>EARTH</CENTER_NAME><REF_FRAME>TEME</REF_FRAME><TIME_SYSTEM>UTC</TIME_SYSTEM><MEAN_ELEMENT_THEORY>SGP4</MEAN_ELEMENT_THEORY></metadata><data><meanElements><EPOCH>2024-11-22T05:09:50.714784</EPOCH><MEAN_MOTION>14.57458129</MEAN_MOTION><ECCENTRICITY>.0001794</ECCENTRICITY><INCLINATION>47.0057</INCLINATION><RA_OF_ASC_NODE>274.7815</RA_OF_ASC_NODE><ARG_OF_PERICENTER>35.0399</ARG_OF_PERICENTER><MEAN_ANOMALY>325.0604</MEAN_ANOMALY></meanElements><tleParameters><EPHEMERIS_TYPE>0</EPHEMERIS_TYPE><CLASSIFICATION_TYPE>U</CLASSIFICATION_TYPE><NORAD_CAT_ID>40091</NORAD_CAT_ID><ELEMENT_SET_NO>999</ELEMENT_SET_NO><REV_AT_EPOCH>55096</REV_AT_EPOCH><BSTAR>.45429E-3</BSTAR><MEAN_MOTION_DOT>.1914E-4</MEAN_MOTION_DOT><MEAN_MOTION_DDOT>0</MEAN_MOTION_DDOT></tleParameters></data></segment></body></omm>
<omm id="CCSDS_OMM_VERS" version="2.0">
<header><CREATION_DATE/><ORIGINATOR/></header><body><segment><metadata><OBJECT_NAME>ORBCOMM FM114</OBJECT_NAME><OBJECT_ID>2015-081A</OBJECT_ID><CENTER_NAME>EARTH</CENTER_NAME><REF_FRAME>TEME</REF_FRAME><TIME_SYSTEM>UTC</TIME_SYSTEM><MEAN_ELEMENT_THEORY>SGP4</MEAN_ELEMENT_THEORY></metadata><data><meanElements><EPOCH>2024-11-21T23:17:03.266880</EPOCH><MEAN_MOTION>14.57489230</MEAN_MOTION><ECCENTRICITY>.0002057</ECCENTRICITY><INCLINATION>47.0012</INCLINATION><RA_OF_ASC_NODE>185.1205</RA_OF_ASC_NODE><ARG_OF_PERICENTER>134.7106</ARG_OF_PERICENTER><MEAN_ANOMALY>225.3947</MEAN_ANOMALY></meanElements><tleParameters><EPHEMERIS_TYPE>0</EPHEMERIS_TYPE><CLASSIFICATION_TYPE>U</CLASSIFICATION_TYPE><NORAD_CAT_ID>41179</NORAD_CAT_ID><ELEMENT_SET_NO>999</ELEMENT_SET_NO><REV_AT_EPOCH>47428</REV_AT_EPOCH><BSTAR>.40132E-3</BSTAR><MEAN_MOTION_DOT>.1672E-4</MEAN_MOTION_DOT><MEAN_MOTION_DDOT>0</MEAN_MOTION_DDOT></tleParameters></data></segment></body></omm>
<omm id="CCSDS_OMM_VERS" version="2.0">
<header><CREATION_DATE/><ORIGINATOR/></header><body><segment><metadata><OBJECT_NAME>ORBCOMM FM119</OBJECT_NAME><OBJECT_ID>2015-081B</OBJECT_ID><CENTER_NAME>EARTH</CENTER_NAME><REF_FRAME>TEME</REF_FRAME><TIME_SYSTEM>UTC</TIME_SYSTEM><MEAN_ELEMENT_THEORY>SGP4</MEAN_ELEMENT_THEORY></metadata><data><meanElements><EPOCH>2024-11-21T12:51:37.252512</EPOCH><MEAN_MOTION>14.57430201</MEAN_MOTION><ECCENTRICITY>.0001844</ECCENTRICITY><INCLINATION>47.0002</INCLINATION><RA_OF_ASC_NODE>96.3962</RA_OF_ASC_NODE><ARG_OF_PERICENTER>215.8529</ARG_OF_PERICENTER><MEAN_ANOMALY>144.2232</MEAN_ANOMALY></meanElements><tleParameters><EPHEMERIS_TYPE>0</EPHEMERIS_TYPE><CLASSIFICATION_TYPE>U</CLASSIFICATION_TYPE><NORAD_CAT_ID>41180</NORAD_CAT_ID><ELEMENT_SET_NO>999</ELEMENT_SET_NO><REV_AT_EPOCH>47542</REV_AT_EPOCH><BSTAR>.40515E-3</BSTAR><MEAN_MOTION_DOT>.1688E-4</MEAN_MOTION_DOT><MEAN_MOTION_DDOT>0</MEAN_MOTION_DDOT></tleParameters></data></segment></body></omm>
<omm id="CCSDS_OMM_VERS" version="2.0">
<header><CREATION_DATE/><ORIGINATOR/></header><body><segment><metadata><OBJECT_NAME>ORBCOMM FM105</OBJECT_NAME><OBJECT_ID>2015-081C</OBJECT_ID><CENTER_NAME>EARTH</CENTER_NAME><REF_FRAME>TEME</REF_FRAME><TIME_SYSTEM>UTC</TIME_SYSTEM><MEAN_ELEMENT_THEORY>SGP4</MEAN_ELEMENT_THEORY></metadata><data><meanElements><EPOCH>2024-11-21T15:49:00.304320</EPOCH><MEAN_MOTION>14.44846512</MEAN_MOTION><ECCENTRICITY>.0001132</ECCENTRICITY><INCLINATION>47.0016</INCLINATION><RA_OF_ASC_NODE>80.8302</RA_OF_ASC_NODE><ARG_OF_PERICENTER>136.8301</ARG_OF_PERICENTER><MEAN_ANOMALY>223.2668</MEAN_ANOMALY></meanElements><tleParameters><EPHEMERIS_TYPE>0</EPHEMERIS_TYPE><CLASSIFICATION_TYPE>U</CLASSIFICATION_TYPE><NORAD_CAT_ID>41181</NORAD_CAT_ID><ELEMENT_SET_NO>999</ELEMENT_SET_NO><REV_AT_EPOCH>47073</REV_AT_EPOCH><BSTAR>.29055E-3</BSTAR><MEAN_MOTION_DOT>.862E-5</MEAN_MOTION_DOT><MEAN_MOTION_DDOT>0</MEAN_MOTION_DDOT></tleParameters></data></segment></body></omm>
<omm id="CCSDS_OMM_VERS" version="2.0">
<header><CREATION_DATE/><ORIGINATOR/></header><body><segment><metadata><OBJECT_NAME>ORBCOMM FM110</OBJECT_NAME><OBJECT_ID>2015-081D</OBJECT_ID><CENTER_NAME>EARTH</CENTER_NAME><REF_FRAME>TEME</REF_FRAME><TIME_SYSTEM>UTC</TIME_SYSTEM><MEAN_ELEMENT_THEORY>SGP4</MEAN_ELEMENT_THEORY></metadata><data><meanElements><EPOCH>2024-11-21T19:25:21.897408</EPOCH><MEAN_MOTION>14.57503606</MEAN_MOTION><ECCENTRICITY>.0001841</ECCENTRICITY><INCLINATION>47.0004</INCLINATION><RA_OF_ASC_NODE>185.2602</RA_OF_ASC_NODE><ARG_OF_PERICENTER>256.8935</ARG_OF_PERICENTER><MEAN_ANOMALY>103.1745</MEAN_ANOMALY></meanElements><tleParameters><EPHEMERIS_TYPE>0</EPHEMERIS_TYPE><CLASSIFICATION_TYPE>U</CLASSIFICATION_TYPE><NORAD_CAT_ID>41182</NORAD_CAT_ID><ELEMENT_SET_NO>999</ELEMENT_SET_NO><REV_AT_EPOCH>47408</REV_AT_EPOCH><BSTAR>.37481E-3</BSTAR><MEAN_MOTION_DOT>.1551E-4</MEAN_MOTION_DOT><MEAN_MOTION_DDOT>0</MEAN_MOTION_DDOT></tleParameters></data></segment></body></omm>
<omm id="CCSDS_OMM_VERS" version="2.0">
<header><CREATION_DATE/><ORIGINATOR/></header><body><segment><metadata><OBJECT_NAME>ORBCOMM FM118</OBJECT_NAME><OBJECT_ID>2015-081E</OBJECT_ID><CENTER_NAME>EARTH</CENTER_NAME><REF_FRAME>TEME</REF_FRAME><TIME_SYSTEM>UTC</TIME_SYSTEM><MEAN_ELEMENT_THEORY>SGP4</MEAN_ELEMENT_THEORY></metadata><data><meanElements><EPOCH>2024-11-21T22:12:04.694976</EPOCH><MEAN_MOTION>14.57444720</MEAN_MOTION><ECCENTRICITY>.000234</ECCENTRICITY><INCLINATION>47.0029</INCLINATION><RA_OF_ASC_NODE>185.0750</RA_OF_ASC_NODE><ARG_OF_PERICENTER>257.9714</ARG_OF_PERICENTER><MEAN_ANOMALY>102.0909</MEAN_ANOMALY></meanElements><tleParameters><EPHEMERIS_TYPE>0</EPHEMERIS_TYPE><CLASSIFICATION_TYPE>U</CLASSIFICATION_TYPE><NORAD_CAT_ID>41183</NORAD_CAT_ID><ELEMENT_SET_NO>999</ELEMENT_SET_NO><REV_AT_EPOCH>47428</REV_AT_EPOCH><BSTAR>.36847E-3</BSTAR><MEAN_MOTION_DOT>.152E-4</MEAN_MOTION_DOT><MEAN_MOTION_DDOT>0</MEAN_MOTION_DDOT></tleParameters></data></segment></body></omm>
<omm id="CCSDS_OMM_VERS" version="2.0">
<header><CREATION_DATE/><ORIGINATOR/></header><body><segment><metadata><OBJECT_NAME>ORBCOMM FM112</OBJECT_NAME><OBJECT_ID>2015-081F</OBJECT_ID><CENTER_NAME>EARTH</CENTER_NAME><REF_FRAME>TEME</REF_FRAME><TIME_SYSTEM>UTC</TIME_SYSTEM><MEAN_ELEMENT_THEORY>SGP4</MEAN_ELEMENT_THEORY></metadata><data><meanElements><EPOCH>2024-11-21T17:14:55.911552</EPOCH><MEAN_MOTION>14.57470678</MEAN_MOTION><ECCENTRICITY>.0001831</ECCENTRICITY><INCLINATION>46.9985</INCLINATION><RA_OF_ASC_NODE>94.7212</RA_OF_ASC_NODE><ARG_OF_PERICENTER>195.9602</ARG_OF_PERICENTER><MEAN_ANOMALY>164.1226</MEAN_ANOMALY></meanElements><tleParameters><EPHEMERIS_TYPE>0</EPHEMERIS_TYPE><CLASSIFICATION_TYPE>U</CLASSIFICATION_TYPE><NORAD_CAT_ID>41184</NORAD_CAT_ID><ELEMENT_SET_NO>999</ELEMENT_SET_NO><REV_AT_EPOCH>47539</REV_AT_EPOCH><BSTAR>.47298E-3</BSTAR><MEAN_MOTION_DOT>.2001E-4</MEAN_MOTION_DOT><MEAN_MOTION_DDOT>0</MEAN_MOTION_DDOT></tleParameters></data></segment></body></omm>
<omm id="CCSDS_OMM_VERS" version="2.0">
<header><CREATION_DATE/><ORIGINATOR/></header><body><segment><metadata><OBJECT_NAME>ORBCOMM FM113</OBJECT_NAME><OBJECT_ID>2015-081G</OBJECT_ID><CENTER_NAME>EARTH</CENTER_NAME><REF_FRAME>TEME</REF_FRAME><TIME_SYSTEM>UTC</TIME_SYSTEM><MEAN_ELEMENT_THEORY>SGP4</MEAN_ELEMENT_THEORY></metadata><data><meanElements><EPOCH>2024-11-21T16:42:35.663040</EPOCH><MEAN_MOTION>14.57458775</MEAN_MOTION><ECCENTRICITY>.0002</ECCENTRICITY><INCLINATION>46.9995</INCLINATION><RA_OF_ASC_NODE>95.1287</RA_OF_ASC_NODE><ARG_OF_PERICENTER>215.5534</ARG_OF_PERICENTER><MEAN_ANOMALY>144.5218</MEAN_ANOMALY></meanElements><tleParameters><EPHEMERIS_TYPE>0</EPHEMERIS_TYPE><CLASSIFICATION_TYPE>U</CLASSIFICATION_TYPE><NORAD_CAT_ID>41185</NORAD_CAT_ID><ELEMENT_SET_NO>999</ELEMENT_SET_NO><REV_AT_EPOCH>47537</REV_AT_EPOCH><BSTAR>.57399E-3</BSTAR><MEAN_MOTION_DOT>.2464E-4</MEAN_MOTION_DOT><MEAN_MOTION_DDOT>0</MEAN_MOTION_DDOT></tleParameters></data></segment></body></omm>

</ndm>
